SL-16 R/B               
1 22803U 93059B   26101.01480075  .00000228  00000+0  13670-3 0  9997
2 22803  70.9900 302.9609 0016613 168.3176 191.8337 14.17238182684119
ARIANE 40 R/B           
1 22830U 93061H   26101.16958357  .00000148  00000+0  69805-4 0  9992
2 22830  98.4860 169.4068 0010784 181.7947 178.3201 14.32879112698758
COSMOS 2278             
1 23087U 94023A   26101.27205441  .00000247  00000+0  15388-3 0  9993
2 23087  71.0502 106.9292 0009600 326.6737  33.3780 14.14377220649414
SL-16 R/B               
1 23088U 94023B   26101.09172723 -.00000134  00000+0 -44780-4 0  9996
2 23088  71.0032   2.8408 0005647 258.0184 102.0306 14.15020188650674
SL-16 R/B               
1 23343U 94074B   26101.31638610  .00000326  00000+0  50214-4 0  9993
2 23343  97.7059 130.8055 0008007 110.9794 259.5540 14.79446274692074
SL-16 R/B               
1 23405U 94077B   26101.20203998 -.00000007  00000+0  20866-4 0  9997
2 23405  70.9812 284.0886 0001248 172.5477 187.5665 14.15566701620830
ARIANE 40+ R/B          
1 23561U 95021B   26101.19401542  .00000199  00000+0  77267-4 0  9991
2 23561  98.4445 172.2273 0007562  52.6174 329.7551 14.39796677623925
SL-16 R/B               
1 23705U 95058B   26101.28129506  .00000286  00000+0  17049-3 0  9996
2 23705  71.0186 111.8304 0010510  66.0754 294.1469 14.15500180572469
SL-16 R/B               
1 24298U 96051B   26101.24790239  .00000049  00000+0  53023-4 0  9991
2 24298  70.7579 106.3257 0012761  93.3688 266.8892 14.12424555526243
ORBVIEW 2 (SEASTAR)     
1 24883U 97037A   26101.17758369  .00000211  00000+0  89599-4 0  9994
2 24883  98.8624 266.3599 0001696 353.6763   6.4400 14.35518565513139
SL-16 R/B               
1 25400U 98043G   26101.14697451  .00000050  00000+0  39931-4 0  9995
2 25400  98.8305  54.7516 0008776 282.1638  77.8558 14.26057574443611
SL-16 R/B               
1 25407U 98045B   26101.06430842  .00000278  00000+0  16468-3 0  9995
2 25407  71.0087 113.4918 0008622 321.9179  38.1333 14.16197003431685
ISS (ZARYA)             
1 25544U 98067A   26101.16675691  .00005918  00000+0  11600-3 0  9994
2 25544  51.6326 271.7779 0006464 298.5374  61.4964 15.48869271561365
CZ-4B R/B               
1 25732U 99025C   26101.11775101  .00000024  00000+0  32463-4 0  9994
2 25732  98.6562 144.6211 0036038 251.0002 170.6963 14.18271990392767
OKEAN-O                 
1 25860U 99039A   26101.16380503  .00000461  00000+0  67218-4 0  9995
2 25860  97.9377 160.7141 0001062 113.3003 246.8321 14.80388795439190
SL-16 R/B               
1 25861U 99039B   26101.11319930  .00000466  00000+0  65831-4 0  9991
2 25861  97.9901 160.1501 0015555 147.9125 212.3038 14.81778333441668
DELTA 2 R/B             
1 25876U 99041E   26101.14656873  .00000799  00000+0  16834-3 0  9990
2 25876  51.7603 171.6203 0502588  84.1405 281.6567 14.11912332367617
