[{"OBJECT_NAME":"SL-16 R/B","OBJECT_ID":"1993-059B","EPOCH":"2026-04-11T00:21:18.784800","MEAN_MOTION":14.17238182,"ECCENTRICITY":0.00166137,"INCLINATION":70.99,"RA_OF_ASC_NODE":302.9609,"ARG_OF_PERICENTER":168.3176,"MEAN_ANOMALY":191.8337,"EPHEMERIS_TYPE":0,"CLASSIFICATION_TYPE":"U","NORAD_CAT_ID":22803,"ELEMENT_SET_NO":999,"REV_AT_EPOCH":68411,"BSTAR":0.00013670414,"MEAN_MOTION_DOT":2.28e-6,"MEAN_MOTION_DDOT":0},{"OBJECT_NAME":"ARIANE 40 R/B","OBJECT_ID":"1993-061H","EPOCH":"2026-04-11T04:04:12.020448","MEAN_MOTION":14.32879112,"ECCENTRICITY":0.00107845,"INCLINATION":98.486,"RA_OF_ASC_NODE":169.4068,"ARG_OF_PERICENTER":181.7947,"MEAN_ANOMALY":178.3201,"EPHEMERIS_TYPE":0,"CLASSIFICATION_TYPE":"U","NORAD_CAT_ID":22830,"ELEMENT_SET_NO":999,"REV_AT_EPOCH":69875,"BSTAR":6.9805084e-5,"MEAN_MOTION_DOT":1.48e-6,"MEAN_MOTION_DDOT":0},{"OBJECT_NAME":"COSMOS 2278","OBJECT_ID":"1994-023A","EPOCH":"2026-04-11T06:31:45.501024","MEAN_MOTION":14.1437722,"ECCENTRICITY":0.00096,"INCLINATION":71.0502,"RA_OF_ASC_NODE":106.9292,"ARG_OF_PERICENTER":326.6737,"MEAN_ANOMALY":33.378,"EPHEMERIS_TYPE":0,"CLASSIFICATION_TYPE":"U","NORAD_CAT_ID":23087,"ELEMENT_SET_NO":999,"REV_AT_EPOCH":64941,"BSTAR":0.00015387983,"MEAN_MOTION_DOT":2.47e-6,"MEAN_MOTION_DDOT":0},{"OBJECT_NAME":"SL-16 R/B","OBJECT_ID":"1994-023B","EPOCH":"2026-04-11T02:12:05.232672","MEAN_MOTION":14.15020188,"ECCENTRICITY":0.00056478,"INCLINATION":71.0032,"RA_OF_ASC_NODE":2.8408,"ARG_OF_PERICENTER":258.0184,"MEAN_ANOMALY":102.0306,"EPHEMERIS_TYPE":0,"CLASSIFICATION_TYPE":"U","NORAD_CAT_ID":23088,"ELEMENT_SET_NO":999,"REV_AT_EPOCH":65067,"BSTAR":-4.4780235e-5,"MEAN_MOTION_DOT":-1.34e-6,"MEAN_MOTION_DDOT":0},{"OBJECT_NAME":"SL-16 R/B","OBJECT_ID":"1994-074B","EPOCH":"2026-04-11T07:35:35.759040","MEAN_MOTION":14.79446274,"ECCENTRICITY":0.00080074,"INCLINATION":97.7059,"RA_OF_ASC_NODE":130.8055,"ARG_OF_PERICENTER":110.9794,"MEAN_ANOMALY":259.554,"EPHEMERIS_TYPE":0,"CLASSIFICATION_TYPE":"U","NORAD_CAT_ID":23343,"ELEMENT_SET_NO":999,"REV_AT_EPOCH":69207,"BSTAR":5.0214455e-5,"MEAN_MOTION_DOT":3.26e-6,"MEAN_MOTION_DDOT":0},{"OBJECT_NAME":"SL-16 R/B","OBJECT_ID":"1994-077B","EPOCH":"2026-04-11T04:50:56.254272","MEAN_MOTION":14.15566701,"ECCENTRICITY":0.0001248,"INCLINATION":70.9812,"RA_OF_ASC_NODE":284.0886,"ARG_OF_PERICENTER":172.5477,"MEAN_ANOMALY":187.5665,"EPHEMERIS_TYPE":0,"CLASSIFICATION_TYPE":"U","NORAD_CAT_ID":23405,"ELEMENT_SET_NO":999,"REV_AT_EPOCH":62083,"BSTAR":2.0866435e-5,"MEAN_MOTION_DOT":-7.0e-8,"MEAN_MOTION_DDOT":0},{"OBJECT_NAME":"ARIANE 40+ R/B","OBJECT_ID":"1995-021B","EPOCH":"2026-04-11T04:39:22.932288","MEAN_MOTION":14.39796677,"ECCENTRICITY":0.00075629,"INCLINATION":98.4445,"RA_OF_ASC_NODE":172.2273,"ARG_OF_PERICENTER":52.6174,"MEAN_ANOMALY":329.7551,"EPHEMERIS_TYPE":0,"CLASSIFICATION_TYPE":"U","NORAD_CAT_ID":23561,"ELEMENT_SET_NO":999,"REV_AT_EPOCH":62392,"BSTAR":7.7267366e-5,"MEAN_MOTION_DOT":1.99e-6,"MEAN_MOTION_DDOT":0},{"OBJECT_NAME":"SL-16 R/B","OBJECT_ID":"1995-058B","EPOCH":"2026-04-11T06:45:03.893184","MEAN_MOTION":14.1550018,"ECCENTRICITY":0.00105102,"INCLINATION":71.0186,"RA_OF_ASC_NODE":111.8304,"ARG_OF_PERICENTER":66.0754,"MEAN_ANOMALY":294.1469,"EPHEMERIS_TYPE":0,"CLASSIFICATION_TYPE":"U","NORAD_CAT_ID":23705,"ELEMENT_SET_NO":999,"REV_AT_EPOCH":57246,"BSTAR":0.00017049167,"MEAN_MOTION_DOT":2.86e-6,"MEAN_MOTION_DDOT":0},{"OBJECT_NAME":"SL-16 R/B","OBJECT_ID":"1996-051B","EPOCH":"2026-04-11T05:56:58.766496","MEAN_MOTION":14.12424555,"ECCENTRICITY":0.00127619,"INCLINATION":70.7579,"RA_OF_ASC_NODE":106.3257,"ARG_OF_PERICENTER":93.3688,"MEAN_ANOMALY":266.8892,"EPHEMERIS_TYPE":0,"CLASSIFICATION_TYPE":"U","NORAD_CAT_ID":24298,"ELEMENT_SET_NO":999,"REV_AT_EPOCH":52624,"BSTAR":5.3023438e-5,"MEAN_MOTION_DOT":4.9e-7,"MEAN_MOTION_DDOT":0},{"OBJECT_NAME":"ORBVIEW 2 (SEASTAR)","OBJECT_ID":"1997-037A","EPOCH":"2026-04-11T04:15:43.230816","MEAN_MOTION":14.35518565,"ECCENTRICITY":0.00016964,"INCLINATION":98.8624,"RA_OF_ASC_NODE":266.3599,"ARG_OF_PERICENTER":353.6763,"MEAN_ANOMALY":6.44,"EPHEMERIS_TYPE":0,"CLASSIFICATION_TYPE":"U","NORAD_CAT_ID":24883,"ELEMENT_SET_NO":999,"REV_AT_EPOCH":51313,"BSTAR":8.959939e-5,"MEAN_MOTION_DOT":2.11e-6,"MEAN_MOTION_DDOT":0},{"OBJECT_NAME":"SL-16 R/B","OBJECT_ID":"1998-043G","EPOCH":"2026-04-11T03:31:38.597664","MEAN_MOTION":14.26057574,"ECCENTRICITY":0.00087762,"INCLINATION":98.8305,"RA_OF_ASC_NODE":54.7516,"ARG_OF_PERICENTER":282.1638,"MEAN_ANOMALY":77.8558,"EPHEMERIS_TYPE":0,"CLASSIFICATION_TYPE":"U","NORAD_CAT_ID":25400,"ELEMENT_SET_NO":999,"REV_AT_EPOCH":44361,"BSTAR":3.9930988e-5,"MEAN_MOTION_DOT":5.0e-7,"MEAN_MOTION_DDOT":0},{"OBJECT_NAME":"SL-16 R/B","OBJECT_ID":"1998-045B","EPOCH":"2026-04-11T01:32:36.247488","MEAN_MOTION":14.16197003,"ECCENTRICITY":0.00086228,"INCLINATION":71.0087,"RA_OF_ASC_NODE":113.4918,"ARG_OF_PERICENTER":321.9179,"MEAN_ANOMALY":38.1333,"EPHEMERIS_TYPE":0,"CLASSIFICATION_TYPE":"U","NORAD_CAT_ID":25407,"ELEMENT_SET_NO":999,"REV_AT_EPOCH":43168,"BSTAR":0.00016467619,"MEAN_MOTION_DOT":2.78e-6,"MEAN_MOTION_DDOT":0},{"OBJECT_NAME":"ISS (ZARYA)","OBJECT_ID":"1998-067A","EPOCH":"2026-04-11T04:00:07.797024","MEAN_MOTION":15.48869271,"ECCENTRICITY":0.00064647,"INCLINATION":51.6326,"RA_OF_ASC_NODE":271.7779,"ARG_OF_PERICENTER":298.5374,"MEAN_ANOMALY":61.4964,"EPHEMERIS_TYPE":0,"CLASSIFICATION_TYPE":"U","NORAD_CAT_ID":25544,"ELEMENT_SET_NO":999,"REV_AT_EPOCH":56136,"BSTAR":0.00011599994,"MEAN_MOTION_DOT":5.918e-5,"MEAN_MOTION_DDOT":0},{"OBJECT_NAME":"CZ-4B R/B","OBJECT_ID":"1999-025C","EPOCH":"2026-04-11T02:49:33.687264","MEAN_MOTION":14.1827199,"ECCENTRICITY":0.00360381,"INCLINATION":98.6562,"RA_OF_ASC_NODE":144.6211,"ARG_OF_PERICENTER":251.0002,"MEAN_ANOMALY":170.6963,"EPHEMERIS_TYPE":0,"CLASSIFICATION_TYPE":"U","NORAD_CAT_ID":25732,"ELEMENT_SET_NO":999,"REV_AT_EPOCH":39276,"BSTAR":3.2463137e-5,"MEAN_MOTION_DOT":2.4e-7,"MEAN_MOTION_DDOT":0},{"OBJECT_NAME":"OKEAN-O","OBJECT_ID":"1999-039A","EPOCH":"2026-04-11T03:55:52.754592","MEAN_MOTION":14.80388795,"ECCENTRICITY":0.00010623,"INCLINATION":97.9377,"RA_OF_ASC_NODE":160.7141,"ARG_OF_PERICENTER":113.3003,"MEAN_ANOMALY":246.8321,"EPHEMERIS_TYPE":0,"CLASSIFICATION_TYPE":"U","NORAD_CAT_ID":25860,"ELEMENT_SET_NO":999,"REV_AT_EPOCH":43919,"BSTAR":6.7217961e-5,"MEAN_MOTION_DOT":4.61e-6,"MEAN_MOTION_DDOT":0},{"OBJECT_NAME":"SL-16 R/B","OBJECT_ID":"1999-039B","EPOCH":"2026-04-11T02:43:00.419520","MEAN_MOTION":14.81778333,"ECCENTRICITY":0.00155554,"INCLINATION":97.9901,"RA_OF_ASC_NODE":160.1501,"ARG_OF_PERICENTER":147.9125,"MEAN_ANOMALY":212.3038,"EPHEMERIS_TYPE":0,"CLASSIFICATION_TYPE":"U","NORAD_CAT_ID":25861,"ELEMENT_SET_NO":999,"REV_AT_EPOCH":44166,"BSTAR":6.5830907e-5,"MEAN_MOTION_DOT":4.66e-6,"MEAN_MOTION_DDOT":0},{"OBJECT_NAME":"DELTA 2 R/B","OBJECT_ID":"1999-041E","EPOCH":"2026-04-11T03:31:03.538272","MEAN_MOTION":14.11912332,"ECCENTRICITY":0.0502588,"INCLINATION":51.7603,"RA_OF_ASC_NODE":171.6203,"ARG_OF_PERICENTER":84.1405,"MEAN_ANOMALY":281.6567,"EPHEMERIS_TYPE":0,"CLASSIFICATION_TYPE":"U","NORAD_CAT_ID":25876,"ELEMENT_SET_NO":999,"REV_AT_EPOCH":36761,"BSTAR":0.00016834089,"MEAN_MOTION_DOT":7.99e-6,"MEAN_MOTION_DDOT":0}]
